PANDORA
1 67395U 80229J   26054.97846065  .00000000  00000-0  37770-3 0    03
2 67395  97.8014  55.4234 0006213 131.3752 149.8013 14.87800303    08
